NORAD_CAT_ID,OBJECT_NAME,OBJECT_TYPE,EPOCH,MEAN_MOTION,ECCENTRICITY,INCLINATION,RA_OF_ASC_NODE,ARG_OF_PERICENTER,MEAN_ANOMALY,BSTAR,MEAN_MOTION_DOT,MEAN_MOTION_DDOT,TLE_LINE0,TLE_LINE1,TLE_LINE2,SEMIMAJOR_AXIS,PERIOD,APOGEE,PERIGEE,DECAYED
56463.0,STARLINK-6051,PAYLOAD,2024-05-14 10:15:45,14.98343055,0.0003148,70.0022,19.3863,276.2926,83.7874,0.0013495,0.00016052,0.0,0 STARLINK-6051,1 56463U 23064R   24135.42761365  .00016052  00000-0  13495-2 0  9996,2 56463  70.0022  19.3863 0003148 276.2926  83.7874 14.98343055 56108,6950.153,96.106,574.205,569.83,0.0
56463.0,STARLINK-6051,PAYLOAD,2024-05-14 23:04:48,14.98369235,0.0003299,70.0017,18.0396,275.207,84.8713,0.00083721,9.921e-05,0.0,0 STARLINK-6051,1 56463U 23064R   24135.96167316  .00009921  00000-0  83721-3 0  9998,2 56463  70.0017  18.0396 0003299 275.2070  84.8713 14.98369235 55825,6950.072,96.104,574.229,569.644,0.0
56463.0,STARLINK-6051,PAYLOAD,2024-05-15 02:17:04,14.98387928,0.0003166,70.0024,17.7024,276.5855,83.4943,0.0011707,0.00013924,0.0,0 STARLINK-6051,1 56463U 23064R   24136.09518536  .00013924  00000-0  11707-2 0  9999,2 56463  70.0024  17.7024 0003166 276.5855  83.4943 14.98387928 56207,6950.014,96.103,574.079,569.678,0.0
56463.0,STARLINK-6051,PAYLOAD,2024-05-15 21:30:40,14.98357391,0.0003193,70.0025,15.6827,274.5161,85.5633,-8.2107e-06,-1.91e-06,0.0,0 STARLINK-6051,1 56463U 23064R   24136.89629698 -.00000191  00000-0 -82107-5 0  9998,2 56463  70.0025  15.6827 0003193 274.5161  85.5633 14.98357391 56327,6950.108,96.105,574.192,569.754,0.0
56463.0,STARLINK-6051,PAYLOAD,2024-05-16 08:43:36,14.98345456,0.0003052,70.0026,14.5021,278.0326,82.0487,-0.0002051,-2.54e-05,0.0,0 STARLINK-6051,1 56463U 23064R   24137.36361467 -.00002540  00000-0 -20510-3 0  9996,2 56463  70.0026  14.5021 0003052 278.0326  82.0487 14.98345456 56393,6950.145,96.106,574.131,569.889,0.0
56463.0,STARLINK-6051,PAYLOAD,2024-05-16 21:32:40,14.98351709,0.0002743,70.0043,13.1584,269.2,90.8845,2.2181e-07,-9e-07,0.0,0 STARLINK-6051,1 56463U 23064R   24137.89768878 -.00000090  00000-0  22181-6 0  9997,2 56463  70.0043  13.1584 0002743 269.2000  90.8845 14.98351709 56111,6950.126,96.106,573.897,570.084,0.0
56463.0,STARLINK-6051,PAYLOAD,2024-05-17 00:44:56,14.98356032,0.0002798,70.0033,12.8215,270.0156,90.0683,-5.426e-05,-7.41e-06,0.0,0 STARLINK-6051,1 56463U 23064R   24138.03120503 -.00000741  00000-0 -54260-4 0  9996,2 56463  70.0033  12.8215 0002798 270.0156  90.0683 14.98356032 56496,6950.112,96.105,573.922,570.033,0.0
56463.0,STARLINK-6051,PAYLOAD,2024-05-17 08:45:36,14.98341132,0.0002729,70.0041,11.9804,265.858,94.2267,9.3274e-05,1.02e-05,0.0,0 STARLINK-6051,1 56463U 23064R   24138.36500956  .00001020  00000-0  93274-4 0  9993,2 56463  70.0041  11.9804 0002729 265.8580  94.2267 14.98341132 56541,6950.158,96.106,573.92,570.127,0.0
56463.0,STARLINK-6051,PAYLOAD,2024-05-17 21:34:42,14.9831811,0.0003622,70.0013,10.632,265.8738,94.2007,-0.00038521,-4.685e-05,0.0,0 STARLINK-6051,1 56463U 23064R   24138.89909817 -.00004685  00000-0 -38521-3 0  9995,2 56463  70.0013  10.6320 0003622 265.8738  94.2007 14.98318110 56628,6950.23,96.108,574.612,569.577,0.0
56463.0,STARLINK-6051,PAYLOAD,2024-05-18 02:23:06,14.98327418,0.0002896,70.0027,10.128,263.7068,96.3761,-3.8626e-05,-5.54e-06,0.0,0 STARLINK-6051,1 56463U 23064R   24139.09937645 -.00000554  00000-0 -38626-4 0  9996,2 56463  70.0027  10.1280 0002896 263.7068  96.3761 14.98327418 56652,6950.201,96.107,574.079,570.053,0.0
56463.0,STARLINK-6051,PAYLOAD,2024-05-18 08:47:38,14.98339184,0.0003094,70.0025,9.4545,265.1518,94.9288,0.00042898,5.03e-05,0.0,0 STARLINK-6051,1 56463U 23064R   24139.36641340  .00005030  00000-0  42898-3 0  9997,2 56463  70.0025   9.4545 0003094 265.1518  94.9288 14.98339184 56697,6950.164,96.106,574.18,569.879,0.0
56463.0,STARLINK-6051,PAYLOAD,2024-05-18 21:36:42,14.98360276,0.0003133,70.0024,8.1075,263.4971,96.5832,0.0016104,0.0001919,0.0,0 STARLINK-6051,1 56463U 23064R   24139.90048888  .00019190  00000-0  16104-2 0  9997,2 56463  70.0024   8.1075 0003133 263.4971  96.5832 14.98360276 56417,6950.099,96.105,574.142,569.787,0.0
56463.0,STARLINK-6051,PAYLOAD,2024-05-19 00:48:58,14.98366064,0.000314,70.0025,7.7708,263.8939,96.1862,0.0016282,0.00019407,0.0,0 STARLINK-6051,1 56463U 23064R   24140.03400580  .00019407  00000-0  16282-2 0  9992,2 56463  70.0025   7.7708 0003140 263.8939  96.1862 14.98366064 56793,6950.081,96.105,574.129,569.764,0.0
56463.0,STARLINK-6051,PAYLOAD,2024-05-19 20:02:35,14.98317818,0.000343,70.0023,5.7514,277.6777,82.3992,-0.0003729,-4.538e-05,0.0,0 STARLINK-6051,1 56463U 23064R   24140.83513447 -.00004538  00000-0 -37290-3 0  9991,2 56463  70.0023   5.7514 0003430 277.6777  82.3992 14.98317818 56917,6950.231,96.108,574.479,569.712,0.0
56463.0,STARLINK-6051,PAYLOAD,2024-05-20 00:50:59,14.98322136,0.0003575,70.0017,5.2475,272.9562,87.1188,-0.00015987,-2e-05,0.0,0 STARLINK-6051,1 56463U 23064R   24141.03541600 -.00002000  00000-0 -15987-3 0  9997,2 56463  70.0017   5.2475 0003575 272.9562  87.1188 14.98322136 56583,6950.217,96.108,574.567,569.598,0.0
56463.0,STARLINK-6051,PAYLOAD,2024-05-20 20:04:36,14.98343836,0.0003523,70.0021,3.227,277.6477,82.4282,0.0015078,0.00017951,0.0,0 STARLINK-6051,1 56463U 23064R   24141.83653750  .00017951  00000-0  15078-2 0  9994,2 56463  70.0021   3.2270 0003523 277.6477  82.4282 14.98343836 57066,6950.15,96.106,574.464,569.567,0.0
56463.0,STARLINK-6051,PAYLOAD,2024-05-21 00:53:00,14.9835153,0.0003593,70.0018,2.7237,272.1418,87.9329,0.0013509,0.00016072,0.0,0 STARLINK-6051,1 56463U 23064R   24142.03681315  .00016072  00000-0  13509-2 0  9995,2 56463  70.0018   2.7237 0003593 272.1418  87.9329 14.98351530 56736,6950.126,96.106,574.488,569.494,0.0
56463.0,STARLINK-6051,PAYLOAD,2024-05-21 20:06:37,14.98338201,0.0002556,70.0043,0.7061,241.4368,118.6534,0.00020598,2.366e-05,0.0,0 STARLINK-6051,1 56463U 23064R   24142.83793247  .00002366  00000-0  20598-3 0  9999,2 56463  70.0043   0.7061 0002556 241.4368 118.6534 14.98338201 57212,6950.168,96.106,573.809,570.256,0.0
56463.0,STARLINK-6051,PAYLOAD,2024-05-21 21:42:45,14.98333872,0.0002551,70.004,0.5374,250.0873,110.0012,0.00017337,1.976e-05,0.0,0 STARLINK-6051,1 56463U 23064R   24142.90469454  .00001976  00000-0  17337-3 0  9990,2 56463  70.0040   0.5374 0002551 250.0873 110.0012 14.98333872 56862,6950.181,96.107,573.819,570.273,0.0
56463.0,STARLINK-6051,PAYLOAD,2024-05-22 00:55:02,14.98328057,0.0002502,70.0033,0.1998,255.8044,104.2837,0.0002723,3.157e-05,0.0,0 STARLINK-6051,1 56463U 23064R   24143.03821810  .00003157  00000-0  27230-3 0  9999,2 56463  70.0033   0.1998 0002502 255.8044 104.2837 14.98328057 57243,6950.199,96.107,573.803,570.325,0.0
56463.0,STARLINK-6051,PAYLOAD,2024-05-22 21:44:46,14.98336936,0.0002715,70.0024,358.0122,244.168,115.9199,7.8227e-05,8.41e-06,0.0,0 STARLINK-6051,1 56463U 23064R   24143.90609070  .00000841  00000-0  78227-4 0  9997,2 56463  70.0024 358.0122 0002715 244.1680 115.9199 14.98336936 57010,6950.171,96.107,573.923,570.149,0.0
56463.0,STARLINK-6051,PAYLOAD,2024-05-22 23:20:54,14.98337283,0.0002775,70.0025,357.844,253.5303,106.5552,5.6399e-05,5.8e-06,0.0,0 STARLINK-6051,1 56463U 23064R   24143.97285038  .00000580  00000-0  56399-4 0  9994,2 56463  70.0025 357.8440 0002775 253.5303 106.5552 14.98337283 57029,6950.17,96.107,573.964,570.107,0.0
56463.0,STARLINK-6051,PAYLOAD,2024-05-23 18:34:31,14.9833313,0.0002751,70.0021,355.8225,254.8077,105.2778,9.1858e-05,1.003e-05,0.0,0 STARLINK-6051,1 56463U 23064R   24144.77397123  .00001003  00000-0  91858-4 0  9992,2 56463  70.0021 355.8225 0002751 254.8077 105.2778 14.98333130 57506,6950.183,96.107,573.96,570.136,0.0
56463.0,STARLINK-6051,PAYLOAD,2024-05-23 20:10:39,14.98333194,0.0002716,70.001,355.6541,253.4715,106.6146,0.00012354,1.382e-05,0.0,0 STARLINK-6051,1 56463U 23064R   24144.84073231  .00001382  00000-0  12354-3 0  9994,2 56463  70.0010 355.6541 0002716 253.4715 106.6146 14.98333194 57153,6950.183,96.107,573.936,570.16,0.0
56463.0,STARLINK-6051,PAYLOAD,2024-05-24 13:48:08,14.98329103,0.0002592,70.0014,353.8026,248.8241,111.2641,6.6627e-05,7.02e-06,0.0,0 STARLINK-6051,1 56463U 23064R   24145.57509504  .00000702  00000-0  66627-4 0  9990,2 56463  70.0014 353.8026 0002592 248.8241 111.2641 14.98329103 57268,6950.196,96.107,573.862,570.259,0.0
56463.0,STARLINK-6051,PAYLOAD,2024-05-24 20:12:39,14.98327271,0.0002484,70.0012,353.1294,259.3742,100.7138,0.00041528,4.865e-05,0.0,0 STARLINK-6051,1 56463U 23064R   24145.84212940  .00004865  00000-0  41528-3 0  9991,2 56463  70.0012 353.1294 0002484 259.3742 100.7138 14.98327271 57661,6950.201,96.107,573.793,570.34,0.0
56463.0,STARLINK-6051,PAYLOAD,2024-05-24 21:48:48,14.98321596,0.0003012,69.9995,352.959,259.9172,100.1648,0.00029947,3.481e-05,0.0,0 STARLINK-6051,1 56463U 23064R   24145.90889421  .00003481  00000-0  29947-3 0  9996,2 56463  69.9995 352.9590 0003012 259.9172 100.1648 14.98321596 57311,6950.219,96.108,574.177,569.99,0.0
56463.0,STARLINK-6051,PAYLOAD,2024-05-24 23:24:56,14.98321112,0.0002943,69.9997,352.7902,260.7313,99.3513,0.00028785,3.342e-05,0.0,0 STARLINK-6051,1 56463U 23064R   24145.97565522  .00003342  00000-0  28785-3 0  9991,2 56463  69.9997 352.7902 0002943 260.7313  99.3513 14.98321112 57681,6950.22,96.108,574.131,570.04,0.0
56463.0,STARLINK-6051,PAYLOAD,2024-05-25 13:50:09,14.98327977,0.000305,69.9998,351.2739,264.6163,95.4648,8.1744e-05,8.82e-06,0.0,0 STARLINK-6051,1 56463U 23064R   24146.57649517  .00000882  00000-0  81744-4 0  9996,2 56463  69.9998 351.2739 0003050 264.6163  95.4648 14.98327977 57412,6950.199,96.107,574.184,569.944,0.0
56463.0,STARLINK-6051,PAYLOAD,2024-05-25 23:26:57,14.98331654,0.0003301,69.9997,350.2657,270.1437,89.9343,8.8079e-05,9.58e-06,0.0,0 STARLINK-6051,1 56463U 23064R   24146.97705387  .00000958  00000-0  88079-4 0  9990,2 56463  69.9997 350.2657 0003301 270.1437  89.9343 14.98331654 57837,6950.188,96.107,574.347,569.759,0.0
